XCUBE-1                 
1 62400U 24247Z   26068.48297321  .00009773  00000+0  36224-3 0  9994
2 62400  44.9938 117.7807 0005235 331.1499  28.9094 15.27910558 67702
STARLINK-34832          
1 65475U 25195T   26068.83302601  .00024772  00000+0  84604-3 0  9990
2 65475  53.1585 257.6585 0000943 102.5697 257.5409 15.30188082 29997
